[{"OBJECT_NAME":"ICESAT-2","OBJECT_ID":"2018-070A","EPOCH":"2026-03-09T22:54:12.225888","MEAN_MOTION":15.28328617,"ECCENTRICITY":0.00038245,"INCLINATION":91.9993,"RA_OF_ASC_NODE":264.2397,"ARG_OF_PERICENTER":123.8941,"MEAN_ANOMALY":236.2673,"EPHEMERIS_TYPE":0,"CLASSIFICATION_TYPE":"U","NORAD_CAT_ID":43613,"ELEMENT_SET_NO":999,"REV_AT_EPOCH":41730,"BSTAR":0.00014022643,"MEAN_MOTION_DOT":3.87e-5,"MEAN_MOTION_DDOT":0},{"OBJECT_NAME":"STARLINK-33918","OBJECT_ID":"2025-091X","EPOCH":"2026-03-09T23:23:49.805664","MEAN_MOTION":15.27587917,"ECCENTRICITY":9.019e-5,"INCLINATION":43.0014,"RA_OF_ASC_NODE":51.1021,"ARG_OF_PERICENTER":261.6685,"MEAN_ANOMALY":98.4065,"EPHEMERIS_TYPE":0,"CLASSIFICATION_TYPE":"U","NORAD_CAT_ID":63796,"ELEMENT_SET_NO":999,"REV_AT_EPOCH":4899,"BSTAR":0.0012384687,"MEAN_MOTION_DOT":0.00033983,"MEAN_MOTION_DDOT":0}]
